CCSDS_OMM_VERS = 2.0
CREATION_DATE  = 
ORIGINATOR     = 

OBJECT_NAME    = ISS (ZARYA)
OBJECT_ID      = 1998-067A
CENTER_NAME    = EARTH
REF_FRAME      = TEME
TIME_SYSTEM    = UTC
MEAN_ELEMENT_THEORY = SGP/SGP4

EPOCH          = 2026-01-07T09:40:53.937984
MEAN_MOTION    = 15.49153097
ECCENTRICITY   = .0007618
INCLINATION    = 51.6331
RA_OF_ASC_NODE = 15.4118
ARG_OF_PERICENTER = 351.0107
MEAN_ANOMALY   = 9.0743

EPHEMERIS_TYPE = 0
CLASSIFICATION_TYPE = U
NORAD_CAT_ID   = 25544
ELEMENT_SET_NO = 999
REV_AT_EPOCH   = 54683
BSTAR          = .16139E-3
MEAN_MOTION_DOT = .8503E-4
MEAN_MOTION_DDOT = 0

CCSDS_OMM_VERS = 2.0
CREATION_DATE  = 
ORIGINATOR     = 

OBJECT_NAME    = CSS (TIANHE)
OBJECT_ID      = 2021-035A
CENTER_NAME    = EARTH
REF_FRAME      = TEME
TIME_SYSTEM    = UTC
MEAN_ELEMENT_THEORY = SGP/SGP4

EPOCH          = 2026-01-07T09:23:04.094304
MEAN_MOTION    = 15.60258564
ECCENTRICITY   = .0011067
INCLINATION    = 41.4649
RA_OF_ASC_NODE = 220.8523
ARG_OF_PERICENTER = 237.7599
MEAN_ANOMALY   = 122.2167

EPHEMERIS_TYPE = 0
CLASSIFICATION_TYPE = U
NORAD_CAT_ID   = 48274
ELEMENT_SET_NO = 999
REV_AT_EPOCH   = 26803
BSTAR          = .16152E-3
MEAN_MOTION_DOT = .13286E-3
MEAN_MOTION_DDOT = 0

CCSDS_OMM_VERS = 2.0
CREATION_DATE  = 
ORIGINATOR     = 

OBJECT_NAME    = ISS (NAUKA)
OBJECT_ID      = 2021-066A
CENTER_NAME    = EARTH
REF_FRAME      = TEME
TIME_SYSTEM    = UTC
MEAN_ELEMENT_THEORY = SGP/SGP4

EPOCH          = 2026-01-07T05:02:13.242336
MEAN_MOTION    = 15.49149320
ECCENTRICITY   = .00076333
INCLINATION    = 51.6331
RA_OF_ASC_NODE = 16.3696
ARG_OF_PERICENTER = 350.2178
MEAN_ANOMALY   = 9.8661

EPHEMERIS_TYPE = 0
CLASSIFICATION_TYPE = U
NORAD_CAT_ID   = 49044
ELEMENT_SET_NO = 999
REV_AT_EPOCH   = 23044
BSTAR          = .16393488E-3
MEAN_MOTION_DOT = .8643E-4
MEAN_MOTION_DDOT = 0

CCSDS_OMM_VERS = 2.0
CREATION_DATE  = 
ORIGINATOR     = 

OBJECT_NAME    = FREGAT DEB
OBJECT_ID      = 2011-037PF
CENTER_NAME    = EARTH
REF_FRAME      = TEME
TIME_SYSTEM    = UTC
MEAN_ELEMENT_THEORY = SGP/SGP4

EPOCH          = 2026-01-06T23:45:34.891488
MEAN_MOTION    = 12.35202198
ECCENTRICITY   = .08793785
INCLINATION    = 51.6539
RA_OF_ASC_NODE = 124.7772
ARG_OF_PERICENTER = 279.3409
MEAN_ANOMALY   = 70.9169

EPHEMERIS_TYPE = 0
CLASSIFICATION_TYPE = U
NORAD_CAT_ID   = 49271
ELEMENT_SET_NO = 999
REV_AT_EPOCH   = 20505
BSTAR          = .62724406E-1
MEAN_MOTION_DOT = .3E-3
MEAN_MOTION_DDOT = 0

CCSDS_OMM_VERS = 2.0
CREATION_DATE  = 
ORIGINATOR     = 

OBJECT_NAME    = CSS (WENTIAN)
OBJECT_ID      = 2022-085A
CENTER_NAME    = EARTH
REF_FRAME      = TEME
TIME_SYSTEM    = UTC
MEAN_ELEMENT_THEORY = SGP/SGP4

EPOCH          = 2026-01-07T06:18:43.443648
MEAN_MOTION    = 15.60254777
ECCENTRICITY   = .001107
INCLINATION    = 41.4649
RA_OF_ASC_NODE = 221.6308
ARG_OF_PERICENTER = 236.8371
MEAN_ANOMALY   = 123.1406

EPHEMERIS_TYPE = 0
CLASSIFICATION_TYPE = U
NORAD_CAT_ID   = 53239
ELEMENT_SET_NO = 999
REV_AT_EPOCH   = 17384
BSTAR          = .15877244E-3
MEAN_MOTION_DOT = .13052E-3
MEAN_MOTION_DDOT = 0

CCSDS_OMM_VERS = 2.0
CREATION_DATE  = 
ORIGINATOR     = 

OBJECT_NAME    = CSS (MENGTIAN)
OBJECT_ID      = 2022-143A
CENTER_NAME    = EARTH
REF_FRAME      = TEME
TIME_SYSTEM    = UTC
MEAN_ELEMENT_THEORY = SGP/SGP4

EPOCH          = 2026-01-07T06:18:43.443648
MEAN_MOTION    = 15.60254777
ECCENTRICITY   = .001107
INCLINATION    = 41.4649
RA_OF_ASC_NODE = 221.6308
ARG_OF_PERICENTER = 236.8371
MEAN_ANOMALY   = 123.1406

EPHEMERIS_TYPE = 0
CLASSIFICATION_TYPE = U
NORAD_CAT_ID   = 54216
ELEMENT_SET_NO = 999
REV_AT_EPOCH   = 15864
BSTAR          = .15877244E-3
MEAN_MOTION_DOT = .13052E-3
MEAN_MOTION_DDOT = 0

CCSDS_OMM_VERS = 2.0
CREATION_DATE  = 
ORIGINATOR     = 

OBJECT_NAME    = SHENZHOU-20 (SZ-20)
OBJECT_ID      = 2025-082A
CENTER_NAME    = EARTH
REF_FRAME      = TEME
TIME_SYSTEM    = UTC
MEAN_ELEMENT_THEORY = SGP/SGP4

EPOCH          = 2026-01-07T06:18:43.443648
MEAN_MOTION    = 15.60254777
ECCENTRICITY   = .001107
INCLINATION    = 41.4649
RA_OF_ASC_NODE = 221.6308
ARG_OF_PERICENTER = 236.8371
MEAN_ANOMALY   = 123.1406

EPHEMERIS_TYPE = 0
CLASSIFICATION_TYPE = U
NORAD_CAT_ID   = 63632
ELEMENT_SET_NO = 999
REV_AT_EPOCH   = 25530
BSTAR          = .15877244E-3
MEAN_MOTION_DOT = .13052E-3
MEAN_MOTION_DDOT = 0

CCSDS_OMM_VERS = 2.0
CREATION_DATE  = 
ORIGINATOR     = 

OBJECT_NAME    = PROGRESS-MS 31
OBJECT_ID      = 2025-146A
CENTER_NAME    = EARTH
REF_FRAME      = TEME
TIME_SYSTEM    = UTC
MEAN_ELEMENT_THEORY = SGP/SGP4

EPOCH          = 2026-01-07T05:02:13.242336
MEAN_MOTION    = 15.49149320
ECCENTRICITY   = .00076333
INCLINATION    = 51.6331
RA_OF_ASC_NODE = 16.3696
ARG_OF_PERICENTER = 350.2178
MEAN_ANOMALY   = 9.8661

EPHEMERIS_TYPE = 0
CLASSIFICATION_TYPE = U
NORAD_CAT_ID   = 64751
ELEMENT_SET_NO = 999
REV_AT_EPOCH   = 675
BSTAR          = .16393488E-3
MEAN_MOTION_DOT = .8643E-4
MEAN_MOTION_DDOT = 0

CCSDS_OMM_VERS = 2.0
CREATION_DATE  = 
ORIGINATOR     = 

OBJECT_NAME    = TIANZHOU-9
OBJECT_ID      = 2025-149A
CENTER_NAME    = EARTH
REF_FRAME      = TEME
TIME_SYSTEM    = UTC
MEAN_ELEMENT_THEORY = SGP/SGP4

EPOCH          = 2026-01-07T06:18:43.443648
MEAN_MOTION    = 15.60254777
ECCENTRICITY   = .001107
INCLINATION    = 41.4649
RA_OF_ASC_NODE = 221.6308
ARG_OF_PERICENTER = 236.8371
MEAN_ANOMALY   = 123.1406

EPHEMERIS_TYPE = 0
CLASSIFICATION_TYPE = U
NORAD_CAT_ID   = 64786
ELEMENT_SET_NO = 999
REV_AT_EPOCH   = 25530
BSTAR          = .15877244E-3
MEAN_MOTION_DOT = .13052E-3
MEAN_MOTION_DDOT = 0

CCSDS_OMM_VERS = 2.0
CREATION_DATE  = 
ORIGINATOR     = 

OBJECT_NAME    = CREW DRAGON 11
OBJECT_ID      = 2025-166A
CENTER_NAME    = EARTH
REF_FRAME      = TEME
TIME_SYSTEM    = UTC
MEAN_ELEMENT_THEORY = SGP/SGP4

EPOCH          = 2026-01-07T05:02:13.242336
MEAN_MOTION    = 15.49149320
ECCENTRICITY   = .00076333
INCLINATION    = 51.6331
RA_OF_ASC_NODE = 16.3696
ARG_OF_PERICENTER = 350.2178
MEAN_ANOMALY   = 9.8661

EPHEMERIS_TYPE = 0
CLASSIFICATION_TYPE = U
NORAD_CAT_ID   = 65077
ELEMENT_SET_NO = 999
REV_AT_EPOCH   = 214
BSTAR          = .16393488E-3
MEAN_MOTION_DOT = .8643E-4
MEAN_MOTION_DDOT = 0

CCSDS_OMM_VERS = 2.0
CREATION_DATE  = 
ORIGINATOR     = 

OBJECT_NAME    = DRAGON CRS-33
OBJECT_ID      = 2025-186A
CENTER_NAME    = EARTH
REF_FRAME      = TEME
TIME_SYSTEM    = UTC
MEAN_ELEMENT_THEORY = SGP/SGP4

EPOCH          = 2026-01-07T05:02:13.242336
MEAN_MOTION    = 15.49149320
ECCENTRICITY   = .00076333
INCLINATION    = 51.6331
RA_OF_ASC_NODE = 16.3696
ARG_OF_PERICENTER = 350.2178
MEAN_ANOMALY   = 9.8661

EPHEMERIS_TYPE = 0
CLASSIFICATION_TYPE = U
NORAD_CAT_ID   = 65304
ELEMENT_SET_NO = 999
REV_AT_EPOCH   = 11
BSTAR          = .16393488E-3
MEAN_MOTION_DOT = .8643E-4
MEAN_MOTION_DDOT = 0

CCSDS_OMM_VERS = 2.0
CREATION_DATE  = 
ORIGINATOR     = 

OBJECT_NAME    = PROGRESS-MS 32
OBJECT_ID      = 2025-204A
CENTER_NAME    = EARTH
REF_FRAME      = TEME
TIME_SYSTEM    = UTC
MEAN_ELEMENT_THEORY = SGP/SGP4

EPOCH          = 2026-01-07T05:02:13.242336
MEAN_MOTION    = 15.49149320
ECCENTRICITY   = .00076333
INCLINATION    = 51.6331
RA_OF_ASC_NODE = 16.3696
ARG_OF_PERICENTER = 350.2178
MEAN_ANOMALY   = 9.8661

EPHEMERIS_TYPE = 0
CLASSIFICATION_TYPE = U
NORAD_CAT_ID   = 65586
ELEMENT_SET_NO = 999
REV_AT_EPOCH   = 27
BSTAR          = .16393488E-3
MEAN_MOTION_DOT = .8643E-4
MEAN_MOTION_DDOT = 0

