ISS (ZARYA)             
1 25544U 98067A   26007.40340206  .00008503  00000+0  16139-3 0  9992
2 25544  51.6331  15.4118 0007618 351.0107   9.0743 15.49153097546833
CSS (TIANHE)            
1 48274U 21035A   26007.39101961  .00013286  00000+0  16152-3 0  9998
2 48274  41.4649 220.8523 0011067 237.7599 122.2167 15.60258564268036
ISS (NAUKA)             
1 49044U 21066A   26007.20987549  .00008643  00000+0  16393-3 0  9990
2 49044  51.6331  16.3696 0007633 350.2178   9.8661 15.49149320230449
FREGAT DEB              
1 49271U 11037PF  26006.98998717  .00030000  00000+0  62724-1 0  9991
2 49271  51.6539 124.7772 0879378 279.3409  70.9169 12.35202198205057
CSS (WENTIAN)           
1 53239U 22085A   26007.26300282  .00013052  00000+0  15877-3 0  9998
2 53239  41.4649 221.6308 0011070 236.8371 123.1406 15.60254777173847
CSS (MENGTIAN)          
1 54216U 22143A   26007.26300282  .00013052  00000+0  15877-3 0  9999
2 54216  41.4649 221.6308 0011070 236.8371 123.1406 15.60254777158644
SHENZHOU-20 (SZ-20)     
1 63632U 25082A   26007.26300282  .00013052  00000+0  15877-3 0  9996
2 63632  41.4649 221.6308 0011070 236.8371 123.1406 15.60254777255307
PROGRESS-MS 31          
1 64751U 25146A   26007.20987549  .00008643  00000+0  16393-3 0  9995
2 64751  51.6331  16.3696 0007633 350.2178   9.8661 15.49149320  6756
TIANZHOU-9              
1 64786U 25149A   26007.26300282  .00013052  00000+0  15877-3 0  9991
2 64786  41.4649 221.6308 0011070 236.8371 123.1406 15.60254777255308
CREW DRAGON 11          
1 65077U 25166A   26007.20987549  .00008643  00000+0  16393-3 0  9999
2 65077  51.6331  16.3696 0007633 350.2178   9.8661 15.49149320  2147
DRAGON CRS-33           
1 65304U 25186A   26007.20987549  .00008643  00000+0  16393-3 0  9994
2 65304  51.6331  16.3696 0007633 350.2178   9.8661 15.49149320   115
PROGRESS-MS 32          
1 65586U 25204A   26007.20987549  .00008643  00000+0  16393-3 0  9997
2 65586  51.6331  16.3696 0007633 350.2178   9.8661 15.49149320   274
